{
  "links" : {
    "next" : "https://api.nasa.gov/neo/rest/v1/feed?start_date=2016-05-16&end_date=2016-05-16&detailed=true&api_key=t0TVs3DtDT2H8Oy2Zy8m2eVrNsAVKAexjcZXUckd",
    "prev" : "https://api.nasa.gov/neo/rest/v1/feed?start_date=2016-05-14&end_date=2016-05-14&detailed=true&api_key=t0TVs3DtDT2H8Oy2Zy8m2eVrNsAVKAexjcZXUckd",
    "self" : "https://api.nasa.gov/neo/rest/v1/feed?start_date=2016-05-15&end_date=2016-05-15&detailed=true&api_key=t0TVs3DtDT2H8Oy2Zy8m2eVrNsAVKAexjcZXUckd"
  },
  "element_count" : 5,
  "near_earth_objects" : {
    "2016-05-15" : [ {
      "links" : {
        "self" : "https://api.nasa.gov/neo/rest/v1/neo/2136818?api_key=t0TVs3DtDT2H8Oy2Zy8m2eVrNsAVKAexjcZXUckd"
      },
      "neo_reference_id" : "2136818",
      "name" : "136818 Selqet (1997 MW1)",
      "nasa_jpl_url" : "http://ssd.jpl.nasa.gov/sbdb.cgi?sstr=2136818",
      "absolute_magnitude_h" : 18.9,
      "estimated_diameter" : {
        "kilometers" : {
          "estimated_diameter_min" : 0.4411182,
          "estimated_diameter_max" : 0.9863702813
        },
        "meters" : {
          "estimated_diameter_min" : 441.1181999969,
          "estimated_diameter_max" : 986.3702813054
        },
        "miles" : {
          "estimated_diameter_min" : 0.2740980571,
          "estimated_diameter_max" : 0.6129018881
        },
        "feet" : {
          "estimated_diameter_min" : 1447.2382352778,
          "estimated_diameter_max" : 3236.1230737181
        }
      },
      "is_potentially_hazardous_asteroid" : false,
      "close_approach_data" : [ {
        "close_approach_date" : "2016-05-15",
        "epoch_date_close_approach" : 1463295600000,
        "relative_velocity" : {
          "kilometers_per_second" : "10.7230612076",
          "kilometers_per_hour" : "38603.0203472801",
          "miles_per_hour" : "23986.4156152308"
        },
        "miss_distance" : {
          "astronomical" : "0.113190777",
          "lunar" : "44.031211853",
          "kilometers" : "16933100",
          "miles" : "10521740"
        },
        "orbiting_body" : "Earth"
      } ],
      "orbital_data" : {
        "orbit_id" : "97",
        "orbit_determination_date" : "2017-09-27 06:51:50",
        "orbit_uncertainty" : "0",
        "minimum_orbit_intersection" : ".113543",
        "jupiter_tisserand_invariant" : "6.326",
        "epoch_osculation" : "2458000.5",
        "eccentricity" : ".3462912345976584",
        "semi_major_axis" : ".9375804265711696",
        "inclination" : "12.77833710327869",
        "ascending_node_longitude" : "259.9517694521273",
        "orbital_period" : "331.5974828563657",
        "perihelion_distance" : ".6129045431192401",
        "perihelion_argument" : "203.7846993891176",
        "aphelion_distance" : "1.262256310023099",
        "perihelion_time" : "2458099.877786882534",
        "mean_anomaly" : "252.11014821482",
        "mean_motion" : "1.085653596942221",
        "equinox" : "J2000"
      }
    }, {
      "links" : {
        "self" : "https://api.nasa.gov/neo/rest/v1/neo/3076781?api_key=t0TVs3DtDT2H8Oy2Zy8m2eVrNsAVKAexjcZXUckd"
      },
      "neo_reference_id" : "3076781",
      "name" : "(2001 HW15)",
      "nasa_jpl_url" : "http://ssd.jpl.nasa.gov/sbdb.cgi?sstr=3076781",
      "absolute_magnitude_h" : 20.3,
      "estimated_diameter" : {
        "kilometers" : {
          "estimated_diameter_min" : 0.2315021222,
          "estimated_diameter_max" : 0.5176544822
        },
        "meters" : {
          "estimated_diameter_min" : 231.5021222103,
          "estimated_diameter_max" : 517.6544821978
        },
        "miles" : {
          "estimated_diameter_min" : 0.1438487052,
          "estimated_diameter_max" : 0.3216554833
        },
        "feet" : {
          "estimated_diameter_min" : 759.5214226325,
          "estimated_diameter_max" : 1698.3415313737
        }
      },
      "is_potentially_hazardous_asteroid" : false,
      "close_approach_data" : [ {
        "close_approach_date" : "2016-05-15",
        "epoch_date_close_approach" : 1463295600000,
        "relative_velocity" : {
          "kilometers_per_second" : "12.0599068358",
          "kilometers_per_hour" : "43415.6646087011",
          "miles_per_hour" : "26976.8056008898"
        },
        "miss_distance" : {
          "astronomical" : "0.4661601025",
          "lunar" : "181.3362731934",
          "kilometers" : "69736560",
          "miles" : "43332288"
        },
        "orbiting_body" : "Earth"
      } ],
      "orbital_data" : {
        "orbit_id" : "40",
        "orbit_determination_date" : "2017-04-06 09:16:23",
        "orbit_uncertainty" : "0",
        "minimum_orbit_intersection" : ".134396",
        "jupiter_tisserand_invariant" : "4.402",
        "epoch_osculation" : "2458000.5",
        "eccentricity" : ".2530423838781479",
        "semi_major_axis" : "1.525485070564412",
        "inclination" : "18.98856962812115",
        "ascending_node_longitude" : "56.5136321402546",
        "orbital_period" : "688.1931878788761",
        "perihelion_distance" : "1.139472691738268",
        "perihelion_argument" : "194.7962056868857",
        "aphelion_distance" : "1.911497449390556",
        "perihelion_time" : "2458256.478830450244",
        "mean_anomaly" : "226.0951886982249",
        "mean_motion" : ".5231089268837125",
        "equinox" : "J2000"
      }
    }, {
      "links" : {
        "self" : "https://api.nasa.gov/neo/rest/v1/neo/3617157?api_key=t0TVs3DtDT2H8Oy2Zy8m2eVrNsAVKAexjcZXUckd"
      },
      "neo_reference_id" : "3617157",
      "name" : "(2012 VE37)",
      "nasa_jpl_url" : "http://ssd.jpl.nasa.gov/sbdb.cgi?sstr=3617157",
      "absolute_magnitude_h" : 20.7,
      "estimated_diameter" : {
        "kilometers" : {
          "estimated_diameter_min" : 0.1925550782,
          "estimated_diameter_max" : 0.4305662442
        },
        "meters" : {
          "estimated_diameter_min" : 192.5550781879,
          "estimated_diameter_max" : 430.566244241
        },
        "miles" : {
          "estimated_diameter_min" : 0.1196481415,
          "estimated_diameter_max" : 0.2675413778
        },
        "feet" : {
          "estimated_diameter_min" : 631.7424027221,
          "estimated_diameter_max" : 1412.6189567557
        }
      },
      "is_potentially_hazardous_asteroid" : false,
      "close_approach_data" : [ {
        "close_approach_date" : "2016-05-15",
        "epoch_date_close_approach" : 1463295600000,
        "relative_velocity" : {
          "kilometers_per_second" : "23.1394228356",
          "kilometers_per_hour" : "83301.9222081125",
          "miles_per_hour" : "51760.5749409241"
        },
        "miss_distance" : {
          "astronomical" : "0.4881676043",
          "lunar" : "189.8972015381",
          "kilometers" : "73028840",
          "miles" : "45378016"
        },
        "orbiting_body" : "Earth"
      } ],
      "orbital_data" : {
        "orbit_id" : "23",
        "orbit_determination_date" : "2017-04-06 08:48:04",
        "orbit_uncertainty" : "2",
        "minimum_orbit_intersection" : ".150696",
        "jupiter_tisserand_invariant" : "5.722",
        "epoch_osculation" : "2458000.5",
        "eccentricity" : ".5368817156753035",
        "semi_major_axis" : "1.040160950836738",
        "inclination" : "17.46286399925969",
        "ascending_node_longitude" : "48.27373593708926",
        "orbital_period" : "387.4799592685064",
        "perihelion_distance" : ".4817175549730549",
        "perihelion_argument" : "149.8829951829548",
        "aphelion_distance" : "1.59860434670042",
        "perihelion_time" : "2457897.934949730724",
        "mean_anomaly" : "95.29116852041635",
        "mean_motion" : ".9290803082554678",
        "equinox" : "J2000"
      }
    } ]
  }
}